BEIDOU-3 M14            
1 43623U 18072B   26131.35130101 -.00000024  00000+0  00000+0 0  9998
2 43623  56.5960  63.8690 0006663 346.0258  13.9438  1.86231559 51961
BEIDOU-3 M16            
1 43647U 18078A   26129.35942515 -.00000037  00000+0  00000+0 0  9991
2 43647  54.1265 301.3466 0007924  39.4697 320.5792  1.86232384 51430
BEIDOU-3 M15            
1 43648U 18078B   26131.09956331 -.00000038  00000+0  00000+0 0  9998
2 43648  54.1206 301.2863 0005058  51.6286 308.4083  1.86232622 51480
BEIDOU-3 G1             
1 43683U 18085A   26131.92649090 -.00000094  00000+0  00000+0 0  9990
2 43683   2.9820  98.3292 0007652 338.6111 286.2910  1.00273003 27691
BEIDOU-3 M17            
1 43706U 18093A   26131.35359073  .00000068  00000+0  00000+0 0  9991
2 43706  54.1670 183.5464 0009480 290.8488 131.5748  1.86228417 50852
BEIDOU-3 M18            
1 43707U 18093B   26131.12349789  .00000065  00000+0  00000+0 0  9997
2 43707  54.1678 183.5463 0007319 322.2688  37.7592  1.86226925 50846
BEIDOU-3 IGSO-1         
1 44204U 19023A   26131.75131156 -.00000223  00000+0  00000+0 0  9997
2 44204  58.6454  38.0276 0023914 234.3447 343.0032  1.00250952  6847
BEIDOU-2 G8             
1 44231U 19027A   26131.85207285 -.00000234  00000+0  00000+0 0  9991
2 44231   1.5655  74.4131 0010965 282.1620 324.3309  1.00273953 25719
BEIDOU-3 IGSO-2         
1 44337U 19035A   26130.52174663 -.00000065  00000+0  00000+0 0  9995
2 44337  55.2384 159.1933 0039671 215.7274 161.0970  1.00278958 25297
BEIDOU-3 M24            
1 44542U 19061A   26131.19261955  .00000065  00000+0  00000+0 0  9996
2 44542  54.3946 183.9757 0008080   3.2774 356.8074  1.86229261 45101
BEIDOU-3 M23            
1 44543U 19061B   26131.34946017  .00000067  00000+0  00000+0 0  9995
2 44543  54.3931 183.9390 0005138 344.4737  32.5944  1.86227672 45118
BEIDOU-3 IGSO-3         
1 44709U 19073A   26120.85038409 -.00000212  00000+0  00000+0 0  9996
2 44709  54.8842 281.4069 0042404 188.8195 170.9972  1.00251230 23982
BEIDOU-3 M22            
1 44793U 19078A   26131.03190575 -.00000038  00000+0  00000+0 0  9995
2 44793  53.9711 301.1346 0007176  47.2274 312.8242  1.86227517 43952
BEIDOU-3 M21            
1 44794U 19078B   26130.09800295 -.00000037  00000+0  00000+0 0  9997
2 44794  53.9450 301.1295 0004992  44.9662 315.0658  1.86228028 43947
BEIDOU-3 M19            
1 44864U 19090A   26128.49025716 -.00000021  00000+0  00000+0 0  9990
2 44864  56.5258  64.1028 0019338 296.1784 262.9647  1.86231851 43492
BEIDOU-3 M20            
1 44865U 19090B   26129.95773515 -.00000020  00000+0  00000+0 0  9999
2 44865  56.5288  64.0890 0017011 308.9514 243.6595  1.86231713 43508
BEIDOU-3 G2             
1 45344U 20017A   26131.98191733 -.00000128  00000+0  00000+0 0  9994
2 45344   2.7912  46.7610 0002754   6.7772 249.7629  1.00273334 22897
BEIDOU-3 G3             
1 45807U 20040A   26131.98798403 -.00000341  00000+0  00000+0 0  9998
2 45807   2.3581  67.3410 0003458 333.8518 294.7626  1.00276303 21705
BEIDOU-3 G4             
1 56564U 23066A   26131.92224421 -.00000272  00000+0  00000+0 0  9992
2 56564   0.5352 322.8637 0003516 160.4508 218.3851  1.00266706 11034
BEIDOU-3 M28            
1 58654U 23207A   26131.24911002 -.00000026  00000+0  00000+0 0  9991
2 58654  55.7216  63.5491 0004270 329.6034  30.3603  1.86229722 16151
BEIDOU-3 M26            
1 58655U 23207B   26131.04660550 -.00000025  00000+0  00000+0 0  9998
2 58655  55.7236  63.5423 0004517 309.1836  50.7652  1.86229720 16132
BEIDOU-3 M25            
1 61186U 24168B   26131.38196060 -.00000038  00000+0  00000+0 0  9999
2 61186  54.5076 303.5215 0003163 314.2188  27.8013  1.86230138 11094
BEIDOU-3 M27            
1 61187U 24168C   26129.05472400 -.00000038  00000+0  00000+0 0  9996
2 61187  54.5049 303.5853 0002347  41.6147 315.1318  1.86230358  8521
